$$SOE
2459580.500000000, A.D. 2022-Jan-01 00:00:00.0000, -4.328976197390662E+08, 7.127697663508165E+07, -5.404425632363047E+07,
2459587.500000000, A.D. 2022-Jan-08 00:00:00.0000, -4.350233386178367E+08, 6.140277427054988E+07, -5.336305822484326E+07,
2459594.500000000, A.D. 2022-Jan-15 00:00:00.0000, -4.369054868463330E+08, 5.149418738396838E+07, -5.265197348967557E+07,
2459601.500000000, A.D. 2022-Jan-22 00:00:00.0000, -4.385438413499957E+08, 4.155686243044996E+07, -5.191150135955428E+07,
2459608.500000000, A.D. 2022-Jan-29 00:00:00.0000, -4.399382888479648E+08, 3.159642336207039E+07, -5.114215075634888E+07,
2459615.500000000, A.D. 2022-Feb-05 00:00:00.0000, -4.410888264608255E+08, 2.161846988135905E+07, -5.034443986100204E+07,
2459622.500000000, A.D. 2022-Feb-12 00:00:00.0000, -4.419955602001188E+08, 1.162857468902467E+07, -4.951889598966770E+07,
2459629.500000000, A.D. 2022-Feb-19 00:00:00.0000, -4.426587026625941E+08, 1.632282092117313E+06, -4.866605545113987E+07,
2459636.500000000, A.D. 2022-Feb-26 00:00:00.0000, -4.430785712391273E+08, -8.364892754901545E+06, -4.778646332359193E+07,
2459643.500000000, A.D. 2022-Mar-05 00:00:00.0000, -4.432555866787288E+08, -1.835746459754746E+07, -4.688067321531787E+07,
2459650.500000000, A.D. 2022-Mar-12 00:00:00.0000, -4.431902717854137E+08, -2.833997888732300E+07, -4.594924703490999E+07,
2459657.500000000, A.D. 2022-Mar-19 00:00:00.0000, -4.428832501769299E+08, -3.830701262311666E+07, -4.499275477506886E+07,
2459664.500000000, A.D. 2022-Mar-26 00:00:00.0000, -4.423352450839694E+08, -4.825317523837799E+07, -4.401177431290323E+07,
2459671.500000000, A.D. 2022-Apr-02 00:00:00.0000, -4.415470781233858E+08, -5.817310959340206E+07, -4.300689123787071E+07,
2459678.500000000, A.D. 2022-Apr-09 00:00:00.0000, -4.405196677740297E+08, -6.806149307072349E+07, -4.197869873201735E+07,
2459685.500000000, A.D. 2022-Apr-16 00:00:00.0000, -4.392540271977352E+08, -7.791303812237033E+07, -4.092779748160727E+07,
2459692.500000000, A.D. 2022-Apr-23 00:00:00.0000, -4.377512626733510E+08, -8.772249118815307E+07, -3.985479541479709E+07,
2459699.500000000, A.D. 2022-Apr-30 00:00:00.0000, -4.360125745139621E+08, -9.748463223459721E+07, -3.876030727723409E+07,
2459706.500000000, A.D. 2022-May-07 00:00:00.0000, -4.340392574064006E+08, -1.071942768918203E+08, -3.764495448798191E+07,
2459713.500000000, A.D. 2022-May-14 00:00:00.0000, -4.318326987841644E+08, -1.168462781520172E+08, -3.650936515458545E+07,
2459720.500000000, A.D. 2022-May-21 00:00:00.0000, -4.293943772628373E+08, -1.264355268728854E+08, -3.535417399817603E+07,
2459727.500000000, A.D. 2022-May-28 00:00:00.0000, -4.267258616152130E+08, -1.359569520482200E+08, -3.418002222258039E+07,
2459734.500000000, A.D. 2022-Jun-04 00:00:00.0000, -4.238288100088099E+08, -1.454055211620358E+08, -3.298755737824861E+07,
2459741.500000000, A.D. 2022-Jun-11 00:00:00.0000, -4.207049693610430E+08, -1.547762406267721E+08, -3.177743323381477E+07,
2459748.500000000, A.D. 2022-Jun-18 00:00:00.0000, -4.173561747726683E+08, -1.640641562946396E+08, -3.055030965727714E+07,
2459755.500000000, A.D. 2022-Jun-25 00:00:00.0000, -4.137843490089334E+08, -1.732643540776686E+08, -2.930685251165710E+07,
2459762.500000000, A.D. 2022-Jul-02 00:00:00.0000, -4.099915018931676E+08, -1.823719607446742E+08, -2.804773358225261E+07,
2459769.500000000, A.D. 2022-Jul-09 00:00:00.0000, -4.059797292212775E+08, -1.913821447206089E+08, -2.677363055625755E+07,
2459776.500000000, A.D. 2022-Jul-16 00:00:00.0000, -4.017512112507437E+08, -2.002901158078109E+08, -2.548522696058074E+07,
2459783.500000000, A.D. 2022-Jul-23 00:00:00.0000, -3.973082129604993E+08, -2.090911237540580E+08, -2.418321184926535E+07,
2459790.500000000, A.D. 2022-Jul-30 00:00:00.0000, -3.926530859964937E+08, -2.177804590249894E+08, -2.286827952192524E+07,
2459797.500000000, A.D. 2022-Aug-06 00:00:00.0000, -3.877882687045807E+08, -2.263534551361053E+08, -2.154112954995495E+07,
2459804.500000000, A.D. 2022-Aug-13 00:00:00.0000, -3.827162850732444E+08, -2.348054897915834E+08, -2.020246680913192E+07,
2459811.500000000, A.D. 2022-Aug-20 00:00:00.0000, -3.774397441530094E+08, -2.431319853348034E+08, -1.885300141490324E+07,
2459818.500000000, A.D. 2022-Aug-27 00:00:00.0000, -3.719613398817919E+08, -2.513284092398016E+08, -1.749344862534620E+07,
2459825.500000000, A.D. 2022-Sep-03 00:00:00.0000, -3.662838510666784E+08, -2.593902747575718E+08, -1.612452874318093E+07,
2459832.500000000, A.D. 2022-Sep-10 00:00:00.0000, -3.604101414311106E+08, -2.673131416964287E+08, -1.474696702276251E+07,
2459839.500000000, A.D. 2022-Sep-17 00:00:00.0000, -3.543431596969958E+08, -2.750926173408490E+08, -1.336149358446728E+07,
2459846.500000000, A.D. 2022-Sep-24 00:00:00.0000, -3.480859396398866E+08, -2.827243575622314E+08, -1.196884334576939E+07,
2459853.500000000, A.D. 2022-Oct-01 00:00:00.0000, -3.416415998757015E+08, -2.902040681465298E+08, -1.056975599251789E+07,
2459860.500000000, A.D. 2022-Oct-08 00:00:00.0000, -3.350133429701735E+08, -2.975275058192519E+08, -9.164975984832421E+06,
2459867.500000000, A.D. 2022-Oct-15 00:00:00.0000, -3.282044548010821E+08, -3.046904777707475E+08, -7.755252413880274E+06,
2459874.500000000, A.D. 2022-Oct-22 00:00:00.0000, -3.212183063526072E+08, -3.116888413676403E+08, -6.341338646822408E+06,
2459881.500000000, A.D. 2022-Oct-29 00:00:00.0000, -3.140583554423389E+08, -3.185185066463641E+08, -4.923992200813413E+06,
2459888.500000000, A.D. 2022-Nov-05 00:00:00.0000, -3.067281462803286E+08, -3.251754388492028E+08, -3.503974814225659E+06,
2459895.500000000, A.D. 2022-Nov-12 00:00:00.0000, -2.992313088217578E+08, -3.316556597355173E+08, -2.082052430762768E+06,
2459902.500000000, A.D. 2022-Nov-19 00:00:00.0000, -2.915715586273423E+08, -3.379552486227604E+08, -6.589951080939621E+05,
2459909.500000000, A.D. 2022-Nov-26 00:00:00.0000, -2.837526969640116E+08, -3.440703435574532E+08, 7.644230925113559E+05,
2459916.500000000, A.D. 2022-Dec-03 00:00:00.0000, -2.757786109764836E+08, -3.499971426324859E+08, 2.187424219331175E+06,
2459923.500000000, A.D. 2022-Dec-10 00:00:00.0000, -2.676532738829555E+08, -3.557319054369552E+08, 3.609226543671325E+06,
2459930.500000000, A.D. 2022-Dec-17 00:00:00.0000, -2.593807451695751E+08, -3.612709546669940E+08, 5.029044669906184E+06,
2459937.500000000, A.D. 2022-Dec-24 00:00:00.0000, -2.509651706729174E+08, -3.666106779654506E+08, 6.446089627410367E+06,
2459944.500000000, A.D. 2022-Dec-31 00:00:00.0000, -2.424107821903362E+08, -3.717475298842387E+08, 7.859568921159536E+06,
2459951.500000000, A.D. 2023-Jan-07 00:00:00.0000, -2.337218964921142E+08, -3.766780330079850E+08, 9.268686609163821E+06,
2459958.500000000, A.D. 2023-Jan-14 00:00:00.0000, -2.249029156981648E+08, -3.813987777428135E+08, 1.067264362843491E+07,
2459965.500000000, A.D. 2023-Jan-21 00:00:00.0000, -2.159583296589841E+08, -3.859064239441478E+08, 1.207063816988012E+07,
2459972.500000000, A.D. 2023-Jan-28 00:00:00.0000, -2.068927166685593E+08, -3.901977045819401E+08, 1.346186575028390E+07,
2459979.500000000, A.D. 2023-Feb-04 00:00:00.0000, -1.977107427144343E+08, -3.942694284183347E+08, 1.484551924873455E+07,
2459986.500000000, A.D. 2023-Feb-11 00:00:00.0000, -1.884171610564061E+08, -3.981184818926465E+08, 1.622078905719814E+07,
2459993.500000000, A.D. 2023-Feb-18 00:00:00.0000, -1.790168121925449E+08, -4.017418310373642E+08, 1.758686328453572E+07,
2460000.500000000, A.D. 2023-Feb-25 00:00:00.0000, -1.695146239444921E+08, -4.051365235874525E+08, 1.894292797730839E+07,
2460007.500000000, A.D. 2023-Mar-04 00:00:00.0000, -1.599156115541800E+08, -4.082996912651126E+08, 2.028816735017794E+07,
2460014.500000000, A.D. 2023-Mar-11 00:00:00.0000, -1.502248777578286E+08, -4.112285522410132E+08, 2.162176402409063E+07,
2460021.500000000, A.D. 2023-Mar-18 00:00:00.0000, -1.404476127849398E+08, -4.139204138229557E+08, 2.294289926481235E+07,
2460028.500000000, A.D. 2023-Mar-25 00:00:00.0000, -1.305890940737531E+08, -4.163726754202068E+08, 2.425075320030874E+07,
2460035.500000000, A.D. 2023-Apr-01 00:00:00.0000, -1.206546852731761E+08, -4.185828313906673E+08, 2.554450501117507E+07,
2460042.500000000, A.D. 2023-Apr-08 00:00:00.0000, -1.106498351408218E+08, -4.205484725458264E+08, 2.682333325159092E+07,
2460049.500000000, A.D. 2023-Apr-15 00:00:00.0000, -1.005800786676579E+08, -4.222672874186800E+08, 2.808641642548081E+07,
2460056.500000000, A.D. 2023-Apr-22 00:00:00.0000, -9.045103861267164E+07, -4.237370663460863E+08, 2.933293340310571E+07,
2460063.500000000, A.D. 2023-Apr-29 00:00:00.0000, -8.026842470550144E+07, -4.249557061138162E+08, 3.056206361212376E+07,
2460070.500000000, A.D. 2023-May-06 00:00:00.0000, -7.003803227095017E+07, -4.259212133838332E+08, 3.177298731105204E+07,
2460077.500000000, A.D. 2023-May-13 00:00:00.0000, -5.976574124565253E+07, -4.266317077967411E+08, 3.296488596247822E+07,
2460084.500000000, A.D. 2023-May-20 00:00:00.0000, -4.945751534590155E+07, -4.270854252391254E+08, 3.413694264500813E+07,
2460091.500000000, A.D. 2023-May-27 00:00:00.0000, -3.911940118593328E+07, -4.272807213032673E+08, 3.528834248420657E+07,
2460098.500000000, A.D. 2023-Jun-03 00:00:00.0000, -2.875752728133113E+07, -4.272160749109851E+08, 3.641827309964243E+07,
2460105.500000000, A.D. 2023-Jun-10 00:00:00.0000, -1.837810290567932E+07, -4.268900921132642E+08, 3.752592506504890E+07,
2460112.500000000, A.D. 2023-Jun-17 00:00:00.0000, -7.987416703496190E+06, -4.263015101237444E+08, 3.861049236900851E+07,
2460119.500000000, A.D. 2023-Jun-24 00:00:00.0000, 2.408165268161322E+06, -4.254492015278882E+08, 3.967117285193875E+07,
2460126.500000000, A.D. 2023-Jul-01 00:00:00.0000, 1.280220233000078E+07, -4.243321778361782E+08, 4.070716866437806E+07,
2460133.500000000, A.D. 2023-Jul-08 00:00:00.0000, 2.318818113606717E+07, -4.229495915540324E+08, 4.171768696760955E+07,
2460140.500000000, A.D. 2023-Jul-15 00:00:00.0000, 3.355951552581472E+07, -4.213007395906900E+08, 4.270194076230602E+07,
$$EOE